[{"OBJECT_NAME":"OBJECT A","OBJECT_ID":"2025-013A","EPOCH":"2026-03-09T23:29:31.895232","MEAN_MOTION":15.29260221,"ECCENTRICITY":0.0010321,"INCLINATION":97.6364,"RA_OF_ASC_NODE":244.5149,"ARG_OF_PERICENTER":282.3775,"MEAN_ANOMALY":77.6309,"EPHEMERIS_TYPE":0,"CLASSIFICATION_TYPE":"U","NORAD_CAT_ID":62729,"ELEMENT_SET_NO":999,"REV_AT_EPOCH":6276,"BSTAR":0.0013206527,"MEAN_MOTION_DOT":0.00037616,"MEAN_MOTION_DDOT":0},{"OBJECT_NAME":"STARLINK-34044","OBJECT_ID":"2025-093L","EPOCH":"2026-03-09T02:12:37.617984","MEAN_MOTION":15.27604612,"ECCENTRICITY":0.00030997,"INCLINATION":42.9978,"RA_OF_ASC_NODE":81.0209,"ARG_OF_PERICENTER":158.4555,"MEAN_ANOMALY":201.6427,"EPHEMERIS_TYPE":0,"CLASSIFICATION_TYPE":"U","NORAD_CAT_ID":63846,"ELEMENT_SET_NO":999,"REV_AT_EPOCH":4766,"BSTAR":0.0012279946,"MEAN_MOTION_DOT":0.00033712,"MEAN_MOTION_DDOT":0}]
